OBJECT_NAME,OBJECT_ID,EPOCH,MEAN_MOTION,ECCENTRICITY,INCLINATION,RA_OF_ASC_NODE,ARG_OF_PERICENTER,MEAN_ANOMALY,EPHEMERIS_TYPE,CLASSIFICATION_TYPE,NORAD_CAT_ID,ELEMENT_SET_NO,REV_AT_EPOCH,BSTAR,MEAN_MOTION_DOT,MEAN_MOTION_DDOT
ELEKTRO-L 3,2019-095A,2026-07-02T21:11:15.845856,1.00272517,.000167,0.2959,81.9607,7.7519,225.0069,0,U,44903,999,2386,0,-.86E-6,0
GONETS-M 14,2019-096A,2026-07-02T19:49:13.240416,12.42870463,.0014152,82.5233,74.9458,115.3553,244.8993,0,U,44905,999,29562,.52526E-3,.83E-6,0
GONETS-M 15,2019-096B,2026-07-02T20:31:32.344608,12.42871793,.0015624,82.5253,75.3917,137.6196,222.6093,0,U,44906,999,29559,.11884E-3,.26E-6,0
GONETS-M 16,2019-096C,2026-07-02T19:12:59.783616,12.42892258,.0010431,82.5198,74.3704,178.3146,181.7970,0,U,44907,999,29557,.67171E-3,.103E-5,0
RS-44 & BREEZE-KM R/B,2019-096E,2026-07-02T19:08:46.178016,12.79748942,.0218534,82.5226,329.3312,107.8328,254.6742,0,U,44909,999,30434,-.12503E-4,.1E-6,0
JILIN-1 KUANFU 01,2020-003A,2026-07-02T18:49:14.058336,15.10810895,.000827,97.5024,257.4355,243.8808,116.1571,0,U,45016,999,35768,.20651E-3,.3369E-4,0
XINGYUN-2 01,2020-028A,2026-07-02T21:28:00.385824,15.11873469,.0010202,97.4871,175.9843,139.8983,220.3003,0,U,45602,999,33721,.15755E-3,.2634E-4,0
XINGYUN-2 02,2020-028B,2026-07-02T19:25:55.565760,15.11598753,.0009829,97.5070,189.5268,209.5587,150.5089,0,U,45603,999,33719,.12486E-3,.2057E-4,0
HAIYANG-1D,2020-036A,2026-07-02T19:26:34.541664,14.34178099,.0003986,98.4562,125.1507,95.1969,264.9671,0,U,45721,999,31721,.42406E-4,.76E-6,0
M2 PATHFINDER,2020-037E,2026-07-02T19:22:32.153376,15.04748560,.0012888,97.8148,15.2141,99.9465,260.3216,0,U,45727,999,32784,.24524E-3,.3398E-4,0
GAOFEN DUOMO (GFDM),2020-042A,2026-07-02T20:35:25.055232,14.76900733,.0011695,97.7739,243.1738,29.3291,330.8574,0,U,45856,999,32332,.11435E-3,.756E-5,0
ZIYUAN 3-03 (ZY 3-03),2020-051A,2026-07-02T20:07:34.032576,15.21380000,.0002058,97.2827,251.0571,254.4282,105.6727,0,U,45939,999,32972,.20734E-3,.4582E-4,0
NEMO-HD,2020-061F,2026-07-02T20:54:01.700928,15.44915490,.0001462,97.1909,245.6678,73.2434,286.8975,0,U,46277,999,32440,.25123E-3,.11728E-3,0
NAPA-1,2020-061BA,2026-07-02T20:26:33.600192,15.70200331,.0001862,97.2446,258.5681,183.1735,176.9516,0,U,46320,999,32419,.66694E-3,.81212E-3,0
JILIN-1 GAOFEN 3E,2020-065D,2026-07-02T19:51:53.738784,15.65649691,.001196,97.2223,236.8177,110.1600,250.0948,0,U,46457,999,32220,.78741E-3,.80008E-3,0
JILIN-1 GAOFEN 3F,2020-065E,2026-07-02T19:36:52.123680,15.62618065,.0013426,97.2178,234.0648,97.9841,262.2942,0,U,46458,999,32214,.75862E-3,.68381E-3,0
JILIN-1 GAOFEN 3G,2020-065F,2026-07-02T19:12:51.293952,15.74317598,.000499,97.2236,241.1264,350.0506,10.0660,0,U,46459,999,32239,.77586E-3,.112878E-2,0
JILIN-1 GAOFEN 3H,2020-065G,2026-07-02T19:25:39.573984,15.70224413,.0004429,97.2186,237.3623,251.8405,108.2375,0,U,46460,999,32233,.85378E-3,.104429E-2,0
HAIYANG-2C,2020-066A,2026-07-02T20:29:21.763968,13.83377758,.0008265,65.9948,176.2775,237.6868,122.3400,0,U,46469,999,29166,.1927E-3,.131E-5,0
HJ-2A,2020-067A,2026-07-02T19:40:09.113088,14.76534650,.0003039,97.8830,261.8222,194.7645,165.3476,0,U,46478,999,31056,.63418E-4,.392E-5,0
HJ-2B,2020-067B,2026-07-02T20:32:36.974400,14.76578741,.0001626,97.8894,262.8926,100.6086,259.5307,0,U,46479,999,31057,.14938E-3,.993E-5,0
GONETS-M 17,2020-068A,2026-07-02T19:49:25.826304,12.42873636,.0022364,82.4998,337.7717,4.0378,356.0878,0,U,46486,999,26110,.10315E-3,.24E-6,0
GONETS-M 18,2020-068B,2026-07-02T20:53:00.333600,12.42874390,.0019605,82.4952,336.8562,0.6437,359.4665,0,U,46487,999,26109,.24805E-3,.44E-6,0
GONETS-M 19,2020-068C,2026-07-02T20:17:17.395872,12.42892575,.0013614,82.4977,337.3248,17.1936,342.9602,0,U,46488,999,26119,.2119E-3,.39E-6,0
DEKART,2020-068H,2026-07-02T19:50:02.516064,15.37704003,.0007854,97.8736,194.2198,217.9227,142.1464,0,U,46493,999,31817,.35384E-3,.1303E-3,0
NORBI,2020-068J,2026-07-02T20:34:12.939744,15.49127966,.0006919,97.8619,201.2098,183.2650,176.8555,0,U,46494,999,31863,.46329E-3,.25146E-3,0
SALSAT,2020-068K,2026-07-02T06:06:00.402048,15.30013367,.0008038,97.8847,187.2381,243.7769,116.2645,0,U,46495,999,31766,.29987E-3,.8637E-4,0
ICEYE-X6,2020-068M,2026-07-02T21:16:47.879328,15.04605143,.0008265,98.0968,178.3096,46.8823,313.3092,0,U,46497,999,31559,.21943E-3,.3015E-4,0
