ELEKTRO-L 3             
1 44903U 19095A   26183.88282229 -.00000086  00000+0  00000+0 0  9998
2 44903   0.2959  81.9607 0001670   7.7519 225.0069  1.00272517 23869
GONETS-M 14             
1 44905U 19096A   26183.82584769  .00000083  00000+0  52526-3 0  9999
2 44905  82.5233  74.9458 0014152 115.3553 244.8993 12.42870463295620
GONETS-M 15             
1 44906U 19096B   26183.85523547  .00000026  00000+0  11884-3 0  9999
2 44906  82.5253  75.3917 0015624 137.6196 222.6093 12.42871793295591
GONETS-M 16             
1 44907U 19096C   26183.80069194  .00000103  00000+0  67171-3 0  9994
2 44907  82.5198  74.3704 0010431 178.3146 181.7970 12.42892258295577
RS-44 & BREEZE-KM R/B   
1 44909U 19096E   26183.79775669  .00000010  00000+0 -12503-4 0  9993
2 44909  82.5226 329.3312 0218534 107.8328 254.6742 12.79748942304345
JILIN-1 KUANFU 01       
1 45016U 20003A   26183.78419049  .00003369  00000+0  20651-3 0  9990
2 45016  97.5024 257.4355 0008270 243.8808 116.1571 15.10810895357685
XINGYUN-2 01            
1 45602U 20028A   26183.89444891  .00002634  00000+0  15755-3 0  9996
2 45602  97.4871 175.9843 0010202 139.8983 220.3003 15.11873469337219
XINGYUN-2 02            
1 45603U 20028B   26183.80967090  .00002057  00000+0  12486-3 0  9996
2 45603  97.5070 189.5268 0009829 209.5587 150.5089 15.11598753337197
HAIYANG-1D              
1 45721U 20036A   26183.81012201  .00000076  00000+0  42406-4 0  9997
2 45721  98.4562 125.1507 0003986  95.1969 264.9671 14.34178099317216
M2 PATHFINDER           
1 45727U 20037E   26183.80731659  .00003398  00000+0  24524-3 0  9998
2 45727  97.8148  15.2141 0012888  99.9465 260.3216 15.04748560327841
GAOFEN DUOMO (GFDM)     
1 45856U 20042A   26183.85792888  .00000756  00000+0  11435-3 0  9995
2 45856  97.7739 243.1738 0011695  29.3291 330.8574 14.76900733323321
ZIYUAN 3-03 (ZY 3-03)   
1 45939U 20051A   26183.83858834  .00004582  00000+0  20734-3 0  9992
2 45939  97.2827 251.0571 0002058 254.4282 105.6727 15.21380000329721
NEMO-HD                 
1 46277U 20061F   26183.87085302  .00011728  00000+0  25123-3 0  9992
2 46277  97.1909 245.6678 0001462  73.2434 286.8975 15.44915490324407
NAPA-1                  
1 46320U 20061BA  26183.85177778  .00081212  00000+0  66694-3 0  9991
2 46320  97.2446 258.5681 0001862 183.1735 176.9516 15.70200331324195
JILIN-1 GAOFEN 3E       
1 46457U 20065D   26183.82770531  .00080008  00000+0  78741-3 0  9997
2 46457  97.2223 236.8177 0011960 110.1600 250.0948 15.65649691322202
JILIN-1 GAOFEN 3F       
1 46458U 20065E   26183.81726995  .00068381  00000+0  75862-3 0  9993
2 46458  97.2178 234.0648 0013426  97.9841 262.2942 15.62618065322143
JILIN-1 GAOFEN 3G       
1 46459U 20065F   26183.80059368  .00112878  00000+0  77586-3 0  9992
2 46459  97.2236 241.1264 0004990 350.0506  10.0660 15.74317598322392
JILIN-1 GAOFEN 3H       
1 46460U 20065G   26183.80948581  .00104429  00000+0  85378-3 0  9999
2 46460  97.2186 237.3623 0004429 251.8405 108.2375 15.70224413322333
HAIYANG-2C              
1 46469U 20066A   26183.85372412  .00000131  00000+0  19270-3 0  9991
2 46469  65.9948 176.2775 0008265 237.6868 122.3400 13.83377758291666
HJ-2A                   
1 46478U 20067A   26183.81954992  .00000392  00000+0  63418-4 0  9990
2 46478  97.8830 261.8222 0003039 194.7645 165.3476 14.76534650310568
HJ-2B                   
1 46479U 20067B   26183.85598350  .00000993  00000+0  14938-3 0  9996
2 46479  97.8894 262.8926 0001626 100.6086 259.5307 14.76578741310575
GONETS-M 17             
1 46486U 20068A   26183.82599336  .00000024  00000+0  10315-3 0  9997
2 46486  82.4998 337.7717 0022364   4.0378 356.0878 12.42873636261103
GONETS-M 18             
1 46487U 20068B   26183.87014275  .00000044  00000+0  24805-3 0  9998
2 46487  82.4952 336.8562 0019605   0.6437 359.4665 12.42874390261091
GONETS-M 19             
1 46488U 20068C   26183.84534023  .00000039  00000+0  21190-3 0  9992
2 46488  82.4977 337.3248 0013614  17.1936 342.9602 12.42892575261191
DEKART                  
1 46493U 20068H   26183.82641801  .00013030  00000+0  35384-3 0  9994
2 46493  97.8736 194.2198 0007854 217.9227 142.1464 15.37704003318178
NORBI                   
1 46494U 20068J   26183.85709421  .00025146  00000+0  46329-3 0  9993
2 46494  97.8619 201.2098 0006919 183.2650 176.8555 15.49127966318639
SALSAT                  
1 46495U 20068K   26183.25417132  .00008637  00000+0  29987-3 0  9990
2 46495  97.8847 187.2381 0008038 243.7769 116.2645 15.30013367317667
ICEYE-X6                
1 46497U 20068M   26183.88666527  .00003015  00000+0  21943-3 0  9994
2 46497  98.0968 178.3096 0008265  46.8823 313.3092 15.04605143315591
